start=new Date('2021-08-28T00:00:00.000Z').valueOf();
sats=[{"CLASSIFICATION_TYPE":"U","OBJECT_NAME":"STARLINK-1183","NORAD_CAT_ID":"45088","MEAN_MOTION":"15.06390644","REV_AT_EPOCH":"8759","ECCENTRICITY":"0.00020650","MEAN_MOTION_DDOT":"0.0000000000000","DECAY_DATE":null,"LAUNCH_DATE":"2020-01-29","TLE_LINE2":"2 45088  53.0546 115.6802 0002065  64.2876 295.8326 15.06390644 87591","BSTAR":"0.00006354200000","FILE":"3104038","PERIAPSIS":"545.812","RCS_SIZE":"LARGE","EPHEMERIS_TYPE":"0","CENTER_NAME":"EARTH","MEAN_MOTION_DOT":"0.00000665","RA_OF_ASC_NODE":"115.6802","REF_FRAME":"TEME","MEAN_ANOMALY":"295.8326","ELEMENT_SET_NO":"999","PERIOD":"95.593","SEMIMAJOR_AXIS":"6925.377","ARG_OF_PERICENTER":"64.2876","APOAPSIS":"548.672","INCLINATION":"53.0546","EPOCH":"2021-08-27T19:24:14.989248","GP_ID":"183555606","TLE_LINE1":"1 45088U 20006AW  21239.80850682  .00000665  00000-0  63542-4 0  9998","MEAN_ELEMENT_THEORY":"SGP4","TIME_SYSTEM":"UTC","OBJECT_ID":"2020-006AW","OBJECT_TYPE":"PAYLOAD","SITE":"AFETR","COUNTRY_CODE":"US"},{"OBJECT_NAME":"STARLINK-1136","CLASSIFICATION_TYPE":"U","NORAD_CAT_ID":"45089","MEAN_MOTION":"15.06404040","REV_AT_EPOCH":"8760","MEAN_MOTION_DDOT":"0.0000000000000","DECAY_DATE":null,"ECCENTRICITY":"0.00021210","TLE_LINE2":"2 45089  53.0552 115.6627 0002121  81.4175 278.7054 15.06404040 87606","BSTAR":"0.00007995400000","FILE":"3104038","RCS_SIZE":"LARGE","CENTER_NAME":"EARTH","PERIAPSIS":"545.732","EPHEMERIS_TYPE":"0","LAUNCH_DATE":"2020-01-29","MEAN_MOTION_DOT":"0.00000909","RA_OF_ASC_NODE":"115.6627","REF_FRAME":"TEME","PERIOD":"95.592","SEMIMAJOR_AXIS":"6925.336","ARG_OF_PERICENTER":"81.4175","ELEMENT_SET_NO":"999","MEAN_ANOMALY":"278.7054","GP_ID":"183555324","TLE_LINE1":"1 45089U 20006AX  21239.81219534  .00000909  00000-0  79954-4 0  9990","MEAN_ELEMENT_THEORY":"SGP4","OBJECT_ID":"2020-006AX","TIME_SYSTEM":"UTC","INCLINATION":"53.0552","APOAPSIS":"548.670","EPOCH":"2021-08-27T19:29:33.677376","COUNTRY_CODE":"US","OBJECT_TYPE":"PAYLOAD","SITE":"AFETR"},{"MEAN_ELEMENT_THEORY":"SGP4","TIME_SYSTEM":"UTC","OBJECT_ID":"2020-006AY","GP_ID":"183554091","TLE_LINE1":"1 45090U 20006AY  21239.39569608 -.00000855  00000-0 -38473-4 0  9998","APOAPSIS":"548.470","INCLINATION":"53.0533","EPOCH":"2021-08-27T09:29:48.141312","COUNTRY_CODE":"US","OBJECT_TYPE":"PAYLOAD","SITE":"AFETR","MEAN_MOTION_DOT":"-0.00000855","RA_OF_ASC_NODE":"117.5242","REF_FRAME":"TEME","PERIOD":"95.592","SEMIMAJOR_AXIS":"6925.321","ARG_OF_PERICENTER":"78.7294","ELEMENT_SET_NO":"999","MEAN_ANOMALY":"281.3903","DECAY_DATE":null,"MEAN_MOTION_DDOT":"0.0000000000000","ECCENTRICITY":"0.00018540","FILE":"3104038","CENTER_NAME":"EARTH","RCS_SIZE":"LARGE","PERIAPSIS":"545.902","EPHEMERIS_TYPE":"0","TLE_LINE2":"2 45090  53.0533 117.5242 0001854  78.7294 281.3903 15.06408923 87533","BSTAR":"-0.00003847300000","LAUNCH_DATE":"2020-01-29","OBJECT_NAME":"STARLINK-1176","CLASSIFICATION_TYPE":"U","REV_AT_EPOCH":"8753","NORAD_CAT_ID":"45090","MEAN_MOTION":"15.06408923"},{"MEAN_MOTION_DDOT":"0.0000000000000","DECAY_DATE":null,"ECCENTRICITY":"0.00019790","TLE_LINE2":"2 45092  53.0545 115.5598 0001979  77.6113 282.5098 15.06405538 87599","BSTAR":"0.00005809800000","RCS_SIZE":"LARGE","FILE":"3104038","PERIAPSIS":"545.826","EPHEMERIS_TYPE":"0","CENTER_NAME":"EARTH","LAUNCH_DATE":"2020-01-29","OBJECT_NAME":"STARLINK-1137","CLASSIFICATION_TYPE":"U","NORAD_CAT_ID":"45092","MEAN_MOTION":"15.06405538","REV_AT_EPOCH":"8759","GP_ID":"183554855","TLE_LINE1":"1 45092U 20006BA  21239.83430478  .00000584  00000-0  58098-4 0  9993","MEAN_ELEMENT_THEORY":"SGP4","TIME_SYSTEM":"UTC","OBJECT_ID":"2020-006BA","APOAPSIS":"548.567","INCLINATION":"53.0545","EPOCH":"2021-08-27T20:01:23.932992","COUNTRY_CODE":"US","OBJECT_TYPE":"PAYLOAD","SITE":"AFETR","MEAN_MOTION_DOT":"0.00000584","RA_OF_ASC_NODE":"115.5598","REF_FRAME":"TEME","PERIOD":"95.592","SEMIMAJOR_AXIS":"6925.332","ARG_OF_PERICENTER":"77.6113","MEAN_ANOMALY":"282.5098","ELEMENT_SET_NO":"999"},{"CLASSIFICATION_TYPE":"U","OBJECT_NAME":"STARLINK-1142","REV_AT_EPOCH":"8759","NORAD_CAT_ID":"45093","MEAN_MOTION":"15.06396957","ECCENTRICITY":"0.00023610","DECAY_DATE":null,"MEAN_MOTION_DDOT":"0.0000000000000","LAUNCH_DATE":"2020-01-29","FILE":"3104038","RCS_SIZE":"LARGE","PERIAPSIS":"545.588","CENTER_NAME":"EARTH","EPHEMERIS_TYPE":"0","TLE_LINE2":"2 45093  53.0544 115.5735 0002361  70.4840 289.6404 15.06396957 87599","BSTAR":"-0.00002455400000","MEAN_MOTION_DOT":"-0.00000648","RA_OF_ASC_NODE":"115.5735","REF_FRAME":"TEME","MEAN_ANOMALY":"289.6404","ELEMENT_SET_NO":"999","PERIOD":"95.592","SEMIMAJOR_AXIS":"6925.358","ARG_OF_PERICENTER":"70.4840","INCLINATION":"53.0544","APOAPSIS":"548.858","EPOCH":"2021-08-27T19:56:06.358560","MEAN_ELEMENT_THEORY":"SGP4","OBJECT_ID":"2020-006BB","TIME_SYSTEM":"UTC","GP_ID":"183555092","TLE_LINE1":"1 45093U 20006BB  21239.83062915 -.00000648  00000-0 -24554-4 0  9994","OBJECT_TYPE":"PAYLOAD","SITE":"AFETR","COUNTRY_CODE":"US"},{"GP_ID":"183555839","TLE_LINE1":"1 45094U 20006BC  21239.84536557 -.00005740  00000-0 -36647-3 0  9997","MEAN_ELEMENT_THEORY":"SGP4","OBJECT_ID":"2020-006BC","TIME_SYSTEM":"UTC","APOAPSIS":"548.896","INCLINATION":"53.0535","EPOCH":"2021-08-27T20:17:19.585248","COUNTRY_CODE":"US","OBJECT_TYPE":"PAYLOAD","SITE":"AFETR","MEAN_MOTION_DOT":"-0.00005740","RA_OF_ASC_NODE":"115.4971","REF_FRAME":"TEME","PERIOD":"95.591","ARG_OF_PERICENTER":"74.3338","SEMIMAJOR_AXIS":"6925.283","MEAN_ANOMALY":"285.7929","ELEMENT_SET_NO":"999","MEAN_MOTION_DDOT":"0.0000000000000","DECAY_DATE":null,"ECCENTRICITY":"0.00025240","TLE_LINE2":"2 45094  53.0535 115.4971 0002524  74.3338 285.7929 15.06421519 87601","BSTAR":"-0.00036647000000","CENTER_NAME":"EARTH","FILE":"3104038","RCS_SIZE":"LARGE","PERIAPSIS":"545.400","EPHEMERIS_TYPE":"0","LAUNCH_DATE":"2020-01-29","OBJECT_NAME":"STARLINK-1146","CLASSIFICATION_TYPE":"U","NORAD_CAT_ID":"45094","MEAN_MOTION":"15.06421519","REV_AT_EPOCH":"8760"},{"SITE":"AFETR","OBJECT_TYPE":"PAYLOAD","COUNTRY_CODE":"US","EPOCH":"2021-08-27T18:47:06.836064","INCLINATION":"53.0549","APOAPSIS":"548.640","TIME_SYSTEM":"UTC","OBJECT_ID":"2020-006BD","MEAN_ELEMENT_THEORY":"SGP4","TLE_LINE1":"1 45095U 20006BD  21239.78271801  .00001461  00000-0  11697-3 0  9991","GP_ID":"183554606","MEAN_ANOMALY":"279.8270","ELEMENT_SET_NO":"999","SEMIMAJOR_AXIS":"6925.373","ARG_OF_PERICENTER":"80.2948","PERIOD":"95.593","RA_OF_ASC_NODE":"115.7872","REF_FRAME":"TEME","MEAN_MOTION_DOT":"0.00001461","LAUNCH_DATE":"2020-01-29","EPHEMERIS_TYPE":"0","FILE":"3104038","RCS_SIZE":"LARGE","PERIAPSIS":"545.835","CENTER_NAME":"EARTH","BSTAR":"0.00011697000000","TLE_LINE2":"2 45095  53.0549 115.7872 0002025  80.2948 279.8270 15.06392081 87591","ECCENTRICITY":"0.00020250","DECAY_DATE":null,"MEAN_MOTION_DDOT":"0.0000000000000","REV_AT_EPOCH":"8759","MEAN_MOTION":"15.06392081","NORAD_CAT_ID":"45095","CLASSIFICATION_TYPE":"U","OBJECT_NAME":"STARLINK-1147"},{"EPOCH":"2021-08-27T20:12:01.334304","APOAPSIS":"548.808","INCLINATION":"53.0547","TLE_LINE1":"1 45096U 20006BE  21239.84168211  .00001013  00000-0  86903-4 0  9995","GP_ID":"183554341","TIME_SYSTEM":"UTC","OBJECT_ID":"2020-006BE","MEAN_ELEMENT_THEORY":"SGP4","SITE":"AFETR","OBJECT_TYPE":"PAYLOAD","COUNTRY_CODE":"US","RA_OF_ASC_NODE":"115.5313","REF_FRAME":"TEME","MEAN_MOTION_DOT":"0.00001013","MEAN_ANOMALY":"287.4458","ELEMENT_SET_NO":"999","ARG_OF_PERICENTER":"72.6783","SEMIMAJOR_AXIS":"6925.349","PERIOD":"95.592","ECCENTRICITY":"0.00023020","MEAN_MOTION_DDOT":"0.0000000000000","DECAY_DATE":null,"LAUNCH_DATE":"2020-01-29","BSTAR":"0.00008690300000","TLE_LINE2":"2 45096  53.0547 115.5313 0002302  72.6783 287.4458 15.06399965 87599","PERIAPSIS":"545.619","FILE":"3104038","RCS_SIZE":"LARGE","CENTER_NAME":"EARTH","EPHEMERIS_TYPE":"0","CLASSIFICATION_TYPE":"U","OBJECT_NAME":"STARLINK-1152","MEAN_MOTION":"15.06399965","NORAD_CAT_ID":"45096","REV_AT_EPOCH":"8759"},{"EPOCH":"2021-08-27T19:45:29.078208","INCLINATION":"53.0551","APOAPSIS":"548.641","TLE_LINE1":"1 45098U 20006BG  21239.82325322 -.00000560  00000-0 -18679-4 0  9996","GP_ID":"183555607","OBJECT_ID":"2020-006BG","TIME_SYSTEM":"UTC","MEAN_ELEMENT_THEORY":"SGP4","SITE":"AFETR","OBJECT_TYPE":"PAYLOAD","COUNTRY_CODE":"US","RA_OF_ASC_NODE":"115.6090","REF_FRAME":"TEME","MEAN_MOTION_DOT":"-0.00000560","ELEMENT_SET_NO":"999","MEAN_ANOMALY":"289.5699","SEMIMAJOR_AXIS":"6925.349","ARG_OF_PERICENTER":"70.5512","PERIOD":"95.592","ECCENTRICITY":"0.00020600","MEAN_MOTION_DDOT":"0.0000000000000","DECAY_DATE":null,"LAUNCH_DATE":"2020-01-29","BSTAR":"-0.00001867900000","TLE_LINE2":"2 45098  53.0551 115.6090 0002060  70.5512 289.5699 15.06399749 87597","CENTER_NAME":"EARTH","FILE":"3104038","RCS_SIZE":"LARGE","PERIAPSIS":"545.788","EPHEMERIS_TYPE":"0","CLASSIFICATION_TYPE":"U","OBJECT_NAME":"STARLINK-1184","MEAN_MOTION":"15.06399749","NORAD_CAT_ID":"45098","REV_AT_EPOCH":"8759"},{"CLASSIFICATION_TYPE":"U","OBJECT_NAME":"STARLINK-1186","MEAN_MOTION":"15.06399941","NORAD_CAT_ID":"45099","REV_AT_EPOCH":"8750","ECCENTRICITY":"0.00020680","MEAN_MOTION_DDOT":"0.0000000000000","DECAY_DATE":null,"LAUNCH_DATE":"2020-01-29","BSTAR":"0.00009210700000","TLE_LINE2":"2 45099  53.0537 118.4229 0002068  76.6042 283.5177 15.06399941 87500","FILE":"3103885","RCS_SIZE":"LARGE","PERIAPSIS":"545.782","EPHEMERIS_TYPE":"0","CENTER_NAME":"EARTH","RA_OF_ASC_NODE":"118.4229","REF_FRAME":"TEME","MEAN_MOTION_DOT":"0.00001090","MEAN_ANOMALY":"283.5177","ELEMENT_SET_NO":"999","ARG_OF_PERICENTER":"76.6042","SEMIMAJOR_AXIS":"6925.349","PERIOD":"95.592","EPOCH":"2021-08-27T04:37:51.912480","APOAPSIS":"548.646","INCLINATION":"53.0537","TLE_LINE1":"1 45099U 20006BH  21239.19296195  .00001090  00000-0  92107-4 0  9997","GP_ID":"183529076","OBJECT_ID":"2020-006BH","TIME_SYSTEM":"UTC","MEAN_ELEMENT_THEORY":"SGP4","SITE":"AFETR","OBJECT_TYPE":"PAYLOAD","COUNTRY_CODE":"US"}];
